{"fetched_at":"2026-03-30T06:02:59Z","count":15439,"tles":[{"name":"STARLINK-30261","line1":"1 57523U 23115C   26087.81508505  .00000693  00000+0  34700-4 0  9994","line2":"2 57523  43.0014 253.8001 0001402 263.7345  96.3347 15.27578957145279","category":"Starlink"}]}