{
  "norad_id": 57523,
  "name": "STARLINK-30261",
  "history": [
    {
      "epoch": "2026-03-28T19:33:43.348320",
      "apogee_km": 484.01477539420284,
      "perigee_km": 482.08966292309105,
      "latitude_deg": -33.02437779789066,
      "longitude_deg": 10.548164800042287,
      "semi_major_axis_km": 6861.189219158647,
      "eccentricity": 0.00014029,
      "inclination_deg": 43.0014,
      "raan_deg": 253.8001,
      "arg_perigee_deg": 263.7345,
      "mean_anomaly_deg": 96.3347,
      "mean_motion_rev_day": 15.27578957
    }
  ]
}